OBJECT_NAME,OBJECT_ID,EPOCH,MEAN_MOTION,ECCENTRICITY,INCLINATION,RA_OF_ASC_NODE,ARG_OF_PERICENTER,MEAN_ANOMALY,EPHEMERIS_TYPE,CLASSIFICATION_TYPE,NORAD_CAT_ID,ELEMENT_SET_NO,REV_AT_EPOCH,BSTAR,MEAN_MOTION_DOT,MEAN_MOTION_DDOT
CYGFM08,2016-078E,2024-11-28T15:55:41.540736,15.34005849,.0013825,34.9499,326.2456,263.3191,96.5953,0,U,41888,999,44140,.7404E-3,.25135E-3,0
CYGFM07,2016-078G,2024-11-28T16:01:03.064512,15.34423368,.0011526,34.9519,317.1263,276.9756,82.9650,0,U,41890,999,44140,.76096E-3,.26159E-3,0
CYGFM03,2016-078H,2024-11-28T15:35:02.162976,15.34271160,.0010652,34.9472,318.5799,262.2397,97.7111,0,U,41891,999,44138,.74472E-3,.25465E-3,0
FENGYUN 3D,2017-072A,2024-11-29T04:24:42.639840,14.19508144,.000092,98.9349,289.9930,182.9450,177.1720,0,U,43010,999,36482,.22143E-3,.421E-5,0
NOAA 20 (JPSS-1),2017-073A,2024-11-29T03:12:48.222144,14.19576711,.0002358,98.7227,269.3822,89.8140,270.3306,0,U,43013,999,36430,.18419E-3,.345E-5,0
GOES 17,2018-022A,2024-11-28T20:26:15.293760,1.00272359,.0003232,0.0059,101.5871,150.6177,17.9163,0,U,43226,999,2475,0,-.63E-6,0
FENGYUN 2H,2018-050A,2024-11-28T21:19:42.548160,1.00274986,.0001084,1.5694,85.6848,150.6248,231.0644,0,U,43491,999,2377,0,-.101E-5,0
METOP-C,2018-087A,2024-11-29T03:10:47.181792,14.21480466,.0001187,98.7036,31.3042,28.1619,331.9622,0,U,43689,999,31455,.22947E-3,.458E-5,0
GEO-KOMPSAT-2A,2018-100A,2024-11-28T23:15:57.627936,1.00274931,.0000616,0.0582,111.6460,23.4076,50.5659,0,U,43823,999,2199,0,-.315E-5,0
METEOR-M2 2,2019-038A,2024-11-29T04:55:06.201696,14.24075681,.0001122,98.8503,304.2774,152.7782,207.3455,0,U,44387,999,28087,.2472E-3,.523E-5,0
ARKTIKA-M 1,2021-016A,2024-11-26T06:08:16.831104,2.00606846,.7004635,63.1351,132.8367,268.4853,17.5000,0,U,47719,999,2739,0,.143E-5,0
FENGYUN 3E,2021-062A,2024-11-29T04:24:12.122496,14.19818407,.0000532,98.7382,333.3071,295.0152,65.0969,0,U,49008,999,17640,.98468E-4,.165E-5,0
GOES 18,2022-021A,2024-11-28T23:42:58.911840,1.00272597,.0000431,0.0096,74.6053,236.9157,335.6105,0,U,51850,999,1013,0,.124E-5,0
NOAA 21 (JPSS-2),2022-150A,2024-11-28T21:21:17.129376,14.19557515,.0002065,98.7079,269.7498,50.1648,309.9710,0,U,54234,999,10634,.20755E-3,.394E-5,0
METEOSAT-12 (MTG-I1),2022-170C,2024-11-29T02:04:58.763136,1.00274005,.0000959,0.6227,42.8677,179.6893,236.7888,0,U,54743,999,730,0,.21E-6,0
TIANMU-1 03,2023-039A,2024-11-29T03:25:29.717184,15.28362000,.0004021,97.4816,124.5358,328.4621,31.6376,0,U,55973,999,9399,.736E-3,.20289E-3,0
TIANMU-1 04,2023-039B,2024-11-29T04:18:09.675360,15.28512298,.0004989,97.4742,123.9945,322.3094,37.7795,0,U,55974,999,9399,.81261E-3,.22522E-3,0
TIANMU-1 05,2023-039C,2024-11-29T04:12:52.785216,15.28356701,.0003972,97.4789,124.3933,348.8804,11.2347,0,U,55975,999,9398,.79242E-3,.21852E-3,0
TIANMU-1 06,2023-039D,2024-11-29T03:15:41.395392,15.28612746,.0004393,97.4802,124.5553,345.4337,14.6775,0,U,55976,999,9398,.76156E-3,.21162E-3,0
METEOR-M2 3,2023-091A,2024-11-29T04:12:39.973824,14.23955602,.0004286,98.6919,27.1929,26.5069,333.6328,0,U,57166,999,7410,.7798E-4,.135E-5,0
TIANMU-1 07,2023-101A,2024-11-29T03:04:05.659392,15.21034532,.0004053,97.3423,26.8485,351.9636,8.1534,0,U,57399,999,7546,.59227E-3,.13094E-3,0
TIANMU-1 08,2023-101B,2024-11-29T02:18:04.838976,15.21063438,.0006367,97.3412,26.6695,350.0382,10.0727,0,U,57400,999,7545,.62639E-3,.13869E-3,0
TIANMU-1 09,2023-101C,2024-11-29T03:29:09.617280,15.21020191,.0006036,97.3367,26.4613,347.8589,12.2501,0,U,57401,999,7546,.62217E-3,.13757E-3,0
TIANMU-1 10,2023-101D,2024-11-29T02:42:11.069568,15.21029696,.0008064,97.3446,26.8765,341.9682,18.1267,0,U,57402,999,7545,.64266E-3,.14222E-3,0
FENGYUN 3F,2023-111A,2024-11-29T03:02:41.345088,14.19946591,.0000949,98.7530,41.5996,46.5281,313.5974,0,U,57490,999,6867,.17522E-3,.328E-5,0
ARKTIKA-M 2,2023-198A,2024-11-27T23:39:51.496416,2.00592600,.6918883,63.2379,216.6740,269.5179,17.8896,0,U,58584,999,696,0,.131E-5,0
TIANMU-1 11,2023-205A,2024-11-29T03:08:03.468480,15.18535331,.001052,97.3906,355.2143,181.1127,179.0085,0,U,58645,999,5151,.56463E-3,.11616E-3,0
TIANMU-1 12,2023-205B,2024-11-29T03:32:04.220448,15.18484937,.0008728,97.3890,355.1276,172.0979,188.0394,0,U,58646,999,5150,.61846E-3,.12708E-3,0
TIANMU-1 13,2023-205C,2024-11-29T02:44:33.555264,15.18498862,.000979,97.3920,355.1530,153.3078,206.8662,0,U,58647,999,5149,.55705E-3,.11445E-3,0
TIANMU-1 14,2023-205D,2024-11-29T02:21:24.228576,15.18492497,.001023,97.3845,354.8413,157.9092,202.2585,0,U,58648,999,5149,.58293E-3,.1198E-3,0
TIANMU-1 19,2023-208A,2024-11-29T03:36:49.889952,15.19184669,.0007063,97.4205,82.9277,143.3928,216.7790,0,U,58660,999,5117,.76989E-3,.16161E-3,0
