METOP-C                 
1 43689U 18087A   24334.13249053  .00000458  00000+0  22947-3 0  9990
2 43689  98.7036  31.3042 0001187  28.1619 331.9622 14.21480466314552
GOES 17                 
1 43226U 18022A   24333.85156590 -.00000063  00000+0  00000+0 0  9992
2 43226   0.0059 101.5871 0003232 150.6177  17.9163  1.00272359 24757
FENGYUN 2H              
1 43491U 18050A   24333.88868690 -.00000101  00000+0  00000+0 0  9994
2 43491   1.5694  85.6848 0001084 150.6248 231.0644  1.00274986 23772
GEO-KOMPSAT-2A          
1 43823U 18100A   24333.96941699 -.00000315  00000+0  00000+0 0  9996
2 43823   0.0582 111.6460 0000616  23.4076  50.5659  1.00274931 21999
GOES 18                 
1 51850U 22021A   24333.98818185  .00000124  00000+0  00000+0 0  9994
2 51850   0.0096  74.6053 0000431 236.9157 335.6105  1.00272597 10133
METEOSAT-12 (MTG-I1)    
1 54743U 22170C   24334.08679124  .00000021  00000+0  00000+0 0  9999
2 54743   0.6227  42.8677 0000959 179.6893 236.7888  1.00274005  7303
METEOR-M2 2             
1 44387U 19038A   24334.20493289  .00000523  00000+0  24720-3 0  9997
2 44387  98.8503 304.2774 0001122 152.7782 207.3455 14.24075681280875
METEOR-M2 3             
1 57166U 23091A   24334.17546266  .00000135  00000+0  77980-4 0  9996
2 57166  98.6919  27.1929 0004286  26.5069 333.6328 14.23955602 74104
NOAA 20 (JPSS-1)        
1 43013U 17073A   24334.13389146  .00000345  00000+0  18419-3 0  9997
2 43013  98.7227 269.3822 0002358  89.8140 270.3306 14.19576711364307
CYGFM08                 
1 41888U 16078E   24333.66367524  .00025135  00000+0  74040-3 0  9998
2 41888  34.9499 326.2456 0013825 263.3191  96.5953 15.34005849441400
CYGFM07                 
1 41890U 16078G   24333.66739658  .00026159  00000+0  76096-3 0  9992
2 41890  34.9519 317.1263 0011526 276.9756  82.9650 15.34423368441407
CYGFM03                 
1 41891U 16078H   24333.64933059  .00025465  00000+0  74472-3 0  9997
2 41891  34.9472 318.5799 0010652 262.2397  97.7111 15.34271160441387
FENGYUN 3D              
1 43010U 17072A   24334.18382685  .00000421  00000+0  22143-3 0  9993
2 43010  98.9349 289.9930 0000920 182.9450 177.1720 14.19508144364827
ARKTIKA-M 1             
1 47719U 21016A   24331.25575036  .00000143  00000+0  00000+0 0  9990
2 47719  63.1351 132.8367 7004635 268.4853  17.5000  2.00606846 27396
FENGYUN 3E              
1 49008U 21062A   24334.18347364  .00000165  00000+0  98468-4 0  9994
2 49008  98.7382 333.3071 0000532 295.0152  65.0969 14.19818407176400
NOAA 21 (JPSS-2)        
1 54234U 22150A   24333.88978159  .00000394  00000+0  20755-3 0  9995
2 54234  98.7079 269.7498 0002065  50.1648 309.9710 14.19557515106348
TIANMU-1 03             
1 55973U 23039A   24334.14270506  .00020289  00000+0  73600-3 0  9996
2 55973  97.4816 124.5358 0004021 328.4621  31.6376 15.28362000 93990
TIANMU-1 04             
1 55974U 23039B   24334.17927865  .00022522  00000+0  81261-3 0  9991
2 55974  97.4742 123.9945 0004989 322.3094  37.7795 15.28512298 93992
TIANMU-1 05             
1 55975U 23039C   24334.17561094  .00021852  00000+0  79242-3 0  9991
2 55975  97.4789 124.3933 0003972 348.8804  11.2347 15.28356701 93983
TIANMU-1 06             
1 55976U 23039D   24334.13589578  .00021162  00000+0  76156-3 0  9990
2 55976  97.4802 124.5553 0004393 345.4337  14.6775 15.28612746 93988
TIANMU-1 07             
1 57399U 23101A   24334.12784328  .00013094  00000+0  59227-3 0  9995
2 57399  97.3423  26.8485 0004053 351.9636   8.1534 15.21034532 75460
TIANMU-1 08             
1 57400U 23101B   24334.09588934  .00013869  00000+0  62639-3 0  9990
2 57400  97.3412  26.6695 0006367 350.0382  10.0727 15.21063438 75452
TIANMU-1 09             
1 57401U 23101C   24334.14525020  .00013757  00000+0  62217-3 0  9992
2 57401  97.3367  26.4613 0006036 347.8589  12.2501 15.21020191 75460
TIANMU-1 10             
1 57402U 23101D   24334.11262812  .00014222  00000+0  64266-3 0  9991
2 57402  97.3446  26.8765 0008064 341.9682  18.1267 15.21029696 75455
FENGYUN 3F              
1 57490U 23111A   24334.12686742  .00000328  00000+0  17522-3 0  9997
2 57490  98.7530  41.5996 0000949  46.5281 313.5974 14.19946591 68679
ARKTIKA-M 2             
1 58584U 23198A   24332.98601269  .00000131  00000+0  00000+0 0  9991
2 58584  63.2379 216.6740 6918883 269.5179  17.8896  2.00592600  6964
TIANMU-1 11             
1 58645U 23205A   24334.13059570  .00011616  00000+0  56463-3 0  9997
2 58645  97.3906 355.2143 0010520 181.1127 179.0085 15.18535331 51513
TIANMU-1 12             
1 58646U 23205B   24334.14727107  .00012708  00000+0  61846-3 0  9991
2 58646  97.3890 355.1276 0008728 172.0979 188.0394 15.18484937 51500
TIANMU-1 13             
1 58647U 23205C   24334.11427726  .00011445  00000+0  55705-3 0  9997
2 58647  97.3920 355.1530 0009790 153.3078 206.8662 15.18498862 51497
TIANMU-1 14             
1 58648U 23205D   24334.09819709  .00011980  00000+0  58293-3 0  9990
2 58648  97.3845 354.8413 0010230 157.9092 202.2585 15.18492497 51499
TIANMU-1 19             
1 58660U 23208A   24334.15057743  .00016161  00000+0  76989-3 0  9994
2 58660  97.4205  82.9277 0007063 143.3928 216.7790 15.19184669 51171
